{
  "type": "FeatureCollection",
  "features": [
    {
      "type": "Feature",
      "properties": {
        "norad_id": 40376,
        "name": "SMAP",
        "group": "resource",
        "lat": -59.50234236581463,
        "lon": 170.9575979570431,
        "alt_km": 690.2156309705506,
        "timestamp": "2025-12-26T11:25:44.876573+00:00",
        "meta_object_name": "SMAP",
        "meta_object_id": "2015-003A",
        "meta_epoch": "2025-12-26T03:46:10.515360",
        "meta_mean_motion": 14.63361123,
        "meta_eccentricity": 0.0001235,
        "meta_inclination": 98.1291,
        "meta_ra_of_asc_node": 4.6876,
        "meta_arg_of_pericenter": 92.6734,
        "meta_mean_anomaly": 267.4609,
        "meta_ephemeris_type": 0,
        "meta_classification_type": "U",
        "meta_norad_cat_id": 40376,
        "meta_element_set_no": 999,
        "meta_rev_at_epoch": 58231,
        "meta_bstar": 0.00011236,
        "meta_mean_motion_dot": 5.34e-06,
        "meta_mean_motion_ddot": 0,
        "tle_line1": "1 40376U 15003A   25360.15706615  .00000534  00000+0  11236-3 0  9993",
        "tle_line2": "2 40376  98.1291   4.6876 0001235  92.6734 267.4609 14.63361123582318"
      },
      "geometry": {
        "type": "Point",
        "coordinates": [
          170.9575979570431,
          -59.50234236581463
        ]
      }
    },
    {
      "type": "Feature",
      "properties": {
        "norad_id": 40536,
        "name": "KOMPSAT-3A",
        "group": "resource",
        "lat": -36.423533125733094,
        "lon": -18.697751044717258,
        "alt_km": 442.07365954744,
        "timestamp": "2025-12-26T11:25:44.876582+00:00",
        "meta_object_name": "KOMPSAT-3A",
        "meta_object_id": "2015-014A",
        "meta_epoch": "2025-12-26T05:22:06.339072",
        "meta_mean_motion": 15.4444275,
        "meta_eccentricity": 0.0005639,
        "meta_inclination": 97.6808,
        "meta_ra_of_asc_node": 335.3201,
        "meta_arg_of_pericenter": 98.2008,
        "meta_mean_anomaly": 261.9879,
        "meta_ephemeris_type": 0,
        "meta_classification_type": "U",
        "meta_norad_cat_id": 40536,
        "meta_element_set_no": 999,
        "meta_rev_at_epoch": 59503,
        "meta_bstar": 0.00044599,
        "meta_mean_motion_dot": 0.00020578,
        "meta_mean_motion_ddot": 0,
        "tle_line1": "1 40536U 15014A   25360.22368448  .00020578  00000+0  44599-3 0  9997",
        "tle_line2": "2 40536  97.6808 335.3201 0005639  98.2008 261.9879 15.44442750595035"
      },
      "geometry": {
        "type": "Point",
        "coordinates": [
          -18.697751044717258,
          -36.423533125733094
        ]
      }
    },
    {
      "type": "Feature",
      "properties": {
        "norad_id": 40697,
        "name": "SENTINEL-2A",
        "group": "resource",
        "lat": -56.851867169769285,
        "lon": 86.17027964827295,
        "alt_km": 796.6899681450586,
        "timestamp": "2025-12-26T11:25:44.876591+00:00",
        "meta_object_name": "SENTINEL-2A",
        "meta_object_id": "2015-028A",
        "meta_epoch": "2025-12-26T04:59:08.889792",
        "meta_mean_motion": 14.30810214,
        "meta_eccentricity": 0.0001036,
        "meta_inclination": 98.5725,
        "meta_ra_of_asc_node": 72.5516,
        "meta_arg_of_pericenter": 89.1077,
        "meta_mean_anomaly": 271.0224,
        "meta_ephemeris_type": 0,
        "meta_classification_type": "U",
        "meta_norad_cat_id": 40697,
        "meta_element_set_no": 999,
        "meta_rev_at_epoch": 54899,
        "meta_bstar": -2.8658e-06,
        "meta_mean_motion_dot": -5.1e-07,
        "meta_mean_motion_ddot": 0,
        "tle_line1": "1 40697U 15028A   25360.20774178 -.00000051  00000+0 -28658-5 0  9995",
        "tle_line2": "2 40697  98.5725  72.5516 0001036  89.1077 271.0224 14.30810214548999"
      },
      "geometry": {
        "type": "Point",
        "coordinates": [
          86.17027964827295,
          -56.851867169769285
        ]
      }
    },
    {
      "type": "Feature",
      "properties": {
        "norad_id": 40701,
        "name": "GAOFEN-8",
        "group": "resource",
        "lat": -77.9281090429239,
        "lon": -141.52258831993043,
        "alt_km": 464.12633549280235,
        "timestamp": "2025-12-26T11:25:44.876600+00:00",
        "meta_object_name": "GAOFEN-8",
        "meta_object_id": "2015-030A",
        "meta_epoch": "2025-12-26T03:58:39.256032",
        "meta_mean_motion": 15.39025008,
        "meta_eccentricity": 0.0011543,
        "meta_inclination": 97.6905,
        "meta_ra_of_asc_node": 178.9651,
        "meta_arg_of_pericenter": 92.1915,
        "meta_mean_anomaly": 268.0651,
        "meta_ephemeris_type": 0,
        "meta_classification_type": "U",
        "meta_norad_cat_id": 40701,
        "meta_element_set_no": 999,
        "meta_rev_at_epoch": 58477,
        "meta_bstar": 0.00017789,
        "meta_mean_motion_dot": 6.798e-05,
        "meta_mean_motion_ddot": 0,
        "tle_line1": "1 40701U 15030A   25360.16573213  .00006798  00000+0  17789-3 0  9999",
        "tle_line2": "2 40701  97.6905 178.9651 0011543  92.1915 268.0651 15.39025008584770"
      },
      "geometry": {
        "type": "Point",
        "coordinates": [
          -141.52258831993043,
          -77.9281090429239
        ]
      }
    },
    {
      "type": "Feature",
      "properties": {
        "norad_id": 40718,
        "name": "CARBONITE 1 (CBNT-1)",
        "group": "resource",
        "lat": -34.31023772365331,
        "lon": -173.82798926072925,
        "alt_km": 637.4096763449497,
        "timestamp": "2025-12-26T11:25:44.876610+00:00",
        "meta_object_name": "CARBONITE 1 (CBNT-1)",
        "meta_object_id": "2015-032D",
        "meta_epoch": "2025-12-26T03:29:16.106784",
        "meta_mean_motion": 14.82804843,
        "meta_eccentricity": 0.0015414,
        "meta_inclination": 97.6407,
        "meta_ra_of_asc_node": 180.5996,
        "meta_arg_of_pericenter": 138.164,
        "meta_mean_anomaly": 222.0755,
        "meta_ephemeris_type": 0,
        "meta_classification_type": "U",
        "meta_norad_cat_id": 40718,
        "meta_element_set_no": 999,
        "meta_rev_at_epoch": 56369,
        "meta_bstar": 0.0001732,
        "meta_mean_motion_dot": 1.353e-05,
        "meta_mean_motion_ddot": 0,
        "tle_line1": "1 40718U 15032D   25360.14532531  .00001353  00000+0  17320-3 0  9998",
        "tle_line2": "2 40718  97.6407 180.5996 0015414 138.1640 222.0755 14.82804843563695"
      },
      "geometry": {
        "type": "Point",
        "coordinates": [
          -173.82798926072925,
          -34.31023772365331
        ]
      }
    },
    {
      "type": "Feature",
      "properties": {
        "norad_id": 40878,
        "name": "YAOGAN-27",
        "group": "resource",
        "lat": 70.14899632991845,
        "lon": -40.1150171917056,
        "alt_km": 1198.654111820536,
        "timestamp": "2025-12-26T11:25:44.876619+00:00",
        "meta_object_name": "YAOGAN-27",
        "meta_object_id": "2015-040A",
        "meta_epoch": "2025-12-26T05:35:11.424768",
        "meta_mean_motion": 13.16061695,
        "meta_eccentricity": 0.0007563,
        "meta_inclination": 100.1024,
        "meta_ra_of_asc_node": 349.2427,
        "meta_arg_of_pericenter": 253.1817,
        "meta_mean_anomaly": 106.8467,
        "meta_ephemeris_type": 0,
        "meta_classification_type": "U",
        "meta_norad_cat_id": 40878,
        "meta_element_set_no": 999,
        "meta_rev_at_epoch": 49491,
        "meta_bstar": 4.327e-05,
        "meta_mean_motion_dot": -2.6e-07,
        "meta_mean_motion_ddot": 0,
        "tle_line1": "1 40878U 15040A   25360.23277112 -.00000026  00000+0  43270-4 0  9996",
        "tle_line2": "2 40878 100.1024 349.2427 0007563 253.1817 106.8467 13.16061695494913"
      },
      "geometry": {
        "type": "Point",
        "coordinates": [
          -40.1150171917056,
          70.14899632991845
        ]
      }
    },
    {
      "type": "Feature",
      "properties": {
        "norad_id": 40894,
        "name": "GAOFEN-9 01",
        "group": "resource",
        "lat": -48.895008146827266,
        "lon": -150.02709664351545,
        "alt_km": 638.0835054224644,
        "timestamp": "2025-12-26T11:25:44.876629+00:00",
        "meta_object_name": "GAOFEN-9 01",
        "meta_object_id": "2015-047A",
        "meta_epoch": "2025-12-26T05:32:10.172256",
        "meta_mean_motion": 14.82454261,
        "meta_eccentricity": 0.0027286,
        "meta_inclination": 97.6526,
        "meta_ra_of_asc_node": 38.6026,
        "meta_arg_of_pericenter": 350.5428,
        "meta_mean_anomaly": 9.5268,
        "meta_ephemeris_type": 0,
        "meta_classification_type": "U",
        "meta_norad_cat_id": 40894,
        "meta_element_set_no": 999,
        "meta_rev_at_epoch": 55456,
        "meta_bstar": 0.0001434,
        "meta_mean_motion_dot": 1.106e-05,
        "meta_mean_motion_ddot": 0,
        "tle_line1": "1 40894U 15047A   25360.23067329  .00001106  00000+0  14340-3 0  9992",
        "tle_line2": "2 40894  97.6526  38.6026 0027286 350.5428   9.5268 14.82454261554561"
      },
      "geometry": {
        "type": "Point",
        "coordinates": [
          -150.02709664351545,
          -48.895008146827266
        ]
      }
    }
  ]
}